SL-8 R/B                
1 21088U 91006B   26072.32859919  .00000071  00000+0  55832-4 0  9992
2 21088  82.9465 167.3408 0022864  28.4025  31.7202 13.77494777764577
OKEAN-3                 
1 21397U 91039A   26072.20324312  .00003870  00000+0  27158-3 0  9991
2 21397  82.5199 333.4399 0013623 324.4892  35.5426 15.04834904865562
COSMOS 2151             
1 21422U 91042A   26072.55214406  .00002728  00000+0  21622-3 0  9995
2 21422  82.4930  79.9491 0013810  51.8745 308.3722 15.00121425863778
SL-14 R/B               
1 21423U 91042B   26072.40413051  .00000611  00000+0  74302-4 0  9990
2 21423  82.4931 216.6992 0015987 225.5157 134.4752 14.81834116853620
ERS-1                   
1 21574U 91050A   26072.03385881  .00000380  00000+0  13626-3 0  9998
2 21574  98.7878  90.3524 0031811 190.4473 169.6057 14.39452345816215
ARIANE 40 R/B           
1 21610U 91050F   26072.56227360  .00000359  00000+0  11987-3 0  9998
2 21610  98.2003 124.6531 0004233  72.7930 287.3724 14.42896879819555
INTERCOSMOS 25          
1 21819U 91086A   26072.62024766  .00002163  00000+0  41694-3 0  9993
2 21819  82.6046 307.6324 1486902 108.4674 268.3422 12.12013799497163
SL-8 R/B                
1 21876U 92008B   26072.49654395  .00000008  00000+0 -78257-5 0  9997
2 21876  82.9222 264.9457 0035700 123.0216 265.6848 13.75969756709944
SL-8 R/B                
1 21938U 92020B   26072.33069983  .00000048  00000+0  34424-4 0  9996
2 21938  82.9331 151.0586 0027613 288.1754 140.4512 13.75549826701635
USA 81                  
1 21949U 92023A   26072.22154792  .00000176  00000+0  57707-4 0  9993
2 21949  85.0077 129.4037 0002375  74.8203 285.3252 14.32369172 95291
COSMOS 2219             
1 22219U 92076A   26072.27011489  .00000028  00000+0  39216-4 0  9993
2 22219  71.0640  10.5834 0018775 202.0457 157.9860 14.14093486718883
SL-16 R/B               
1 22220U 92076B   26072.29120377 -.00000090  00000+0 -20806-4 0  9990
2 22220  71.0008 180.7878 0010474  89.7333 301.0306 14.16859204722345
COSMOS 2221             
1 22236U 92080A   26072.51625996  .00002346  00000+0  20541-3 0  9993
2 22236  82.5010 275.4149 0014361 174.1892 185.9499 14.96217844781368
SL-16 R/B               
1 22285U 92093B   26072.20233847 -.00000107  00000+0 -30520-4 0  9991
2 22285  71.0241 356.8924 0006366 289.9111  70.1326 14.15447135713651
COSMOS 2228             
1 22286U 92094A   26072.59691207  .00003180  00000+0  27205-3 0  9990
2 22286  82.5159 233.5688 0016660 290.4794  69.4640 14.97213482776641
SL-16 R/B               
1 22566U 93016B   26072.38445664 -.00000055  00000+0 -34982-5 0  9999
2 22566  71.0080 207.4207 0012060 309.2313  50.7738 14.15309365702692
COSMOS 2242             
1 22626U 93024A   26072.51389915  .00002255  00000+0  19556-3 0  9996
2 22626  82.5154 263.0577 0014972 294.8741  65.0924 14.96566146780967
