[{"OBJECT_NAME":"SL-8 R/B","OBJECT_ID":"1991-006B","EPOCH":"2026-03-13T07:53:10.970016","MEAN_MOTION":13.77494777,"ECCENTRICITY":0.00228644,"INCLINATION":82.9465,"RA_OF_ASC_NODE":167.3408,"ARG_OF_PERICENTER":28.4025,"MEAN_ANOMALY":31.7202,"EPHEMERIS_TYPE":0,"CLASSIFICATION_TYPE":"U","NORAD_CAT_ID":21088,"ELEMENT_SET_NO":999,"REV_AT_EPOCH":76457,"BSTAR":5.5831595e-5,"MEAN_MOTION_DOT":7.1e-7,"MEAN_MOTION_DDOT":0},{"OBJECT_NAME":"OKEAN-3","OBJECT_ID":"1991-039A","EPOCH":"2026-03-13T04:52:40.205568","MEAN_MOTION":15.04834904,"ECCENTRICITY":0.00136232,"INCLINATION":82.5199,"RA_OF_ASC_NODE":333.4399,"ARG_OF_PERICENTER":324.4892,"MEAN_ANOMALY":35.5426,"EPHEMERIS_TYPE":0,"CLASSIFICATION_TYPE":"U","NORAD_CAT_ID":21397,"ELEMENT_SET_NO":999,"REV_AT_EPOCH":86556,"BSTAR":0.00027158174,"MEAN_MOTION_DOT":3.87e-5,"MEAN_MOTION_DDOT":0},{"OBJECT_NAME":"COSMOS 2151","OBJECT_ID":"1991-042A","EPOCH":"2026-03-13T13:15:05.246784","MEAN_MOTION":15.00121425,"ECCENTRICITY":0.00138101,"INCLINATION":82.493,"RA_OF_ASC_NODE":79.9491,"ARG_OF_PERICENTER":51.8745,"MEAN_ANOMALY":308.3722,"EPHEMERIS_TYPE":0,"CLASSIFICATION_TYPE":"U","NORAD_CAT_ID":21422,"ELEMENT_SET_NO":999,"REV_AT_EPOCH":86377,"BSTAR":0.00021621929,"MEAN_MOTION_DOT":2.728e-5,"MEAN_MOTION_DDOT":0},{"OBJECT_NAME":"SL-14 R/B","OBJECT_ID":"1991-042B","EPOCH":"2026-03-13T09:41:56.876064","MEAN_MOTION":14.81834116,"ECCENTRICITY":0.0015987,"INCLINATION":82.4931,"RA_OF_ASC_NODE":216.6992,"ARG_OF_PERICENTER":225.5157,"MEAN_ANOMALY":134.4752,"EPHEMERIS_TYPE":0,"CLASSIFICATION_TYPE":"U","NORAD_CAT_ID":21423,"ELEMENT_SET_NO":999,"REV_AT_EPOCH":85362,"BSTAR":7.4301827e-5,"MEAN_MOTION_DOT":6.11e-6,"MEAN_MOTION_DDOT":0},{"OBJECT_NAME":"ERS-1","OBJECT_ID":"1991-050A","EPOCH":"2026-03-13T00:48:45.401184","MEAN_MOTION":14.39452345,"ECCENTRICITY":0.00318116,"INCLINATION":98.7878,"RA_OF_ASC_NODE":90.3524,"ARG_OF_PERICENTER":190.4473,"MEAN_ANOMALY":169.6057,"EPHEMERIS_TYPE":0,"CLASSIFICATION_TYPE":"U","NORAD_CAT_ID":21574,"ELEMENT_SET_NO":999,"REV_AT_EPOCH":81621,"BSTAR":0.0001362641,"MEAN_MOTION_DOT":3.8e-6,"MEAN_MOTION_DDOT":0},{"OBJECT_NAME":"ARIANE 40 R/B","OBJECT_ID":"1991-050F","EPOCH":"2026-03-13T13:29:40.439040","MEAN_MOTION":14.42896879,"ECCENTRICITY":0.0004233,"INCLINATION":98.2003,"RA_OF_ASC_NODE":124.6531,"ARG_OF_PERICENTER":72.793,"MEAN_ANOMALY":287.3724,"EPHEMERIS_TYPE":0,"CLASSIFICATION_TYPE":"U","NORAD_CAT_ID":21610,"ELEMENT_SET_NO":999,"REV_AT_EPOCH":81955,"BSTAR":0.0001198673,"MEAN_MOTION_DOT":3.59e-6,"MEAN_MOTION_DDOT":0},{"OBJECT_NAME":"INTERCOSMOS 25","OBJECT_ID":"1991-086A","EPOCH":"2026-03-13T14:53:09.397824","MEAN_MOTION":12.12013799,"ECCENTRICITY":0.14869024,"INCLINATION":82.6046,"RA_OF_ASC_NODE":307.6324,"ARG_OF_PERICENTER":108.4674,"MEAN_ANOMALY":268.3422,"EPHEMERIS_TYPE":0,"CLASSIFICATION_TYPE":"U","NORAD_CAT_ID":21819,"ELEMENT_SET_NO":999,"REV_AT_EPOCH":49716,"BSTAR":0.00041694273,"MEAN_MOTION_DOT":2.163e-5,"MEAN_MOTION_DDOT":0},{"OBJECT_NAME":"SL-8 R/B","OBJECT_ID":"1992-008B","EPOCH":"2026-03-13T11:55:01.397280","MEAN_MOTION":13.75969756,"ECCENTRICITY":0.00357006,"INCLINATION":82.9222,"RA_OF_ASC_NODE":264.9457,"ARG_OF_PERICENTER":123.0216,"MEAN_ANOMALY":265.6848,"EPHEMERIS_TYPE":0,"CLASSIFICATION_TYPE":"U","NORAD_CAT_ID":21876,"ELEMENT_SET_NO":999,"REV_AT_EPOCH":70994,"BSTAR":-7.825656e-6,"MEAN_MOTION_DOT":8.0e-8,"MEAN_MOTION_DDOT":0},{"OBJECT_NAME":"SL-8 R/B","OBJECT_ID":"1992-020B","EPOCH":"2026-03-13T07:56:12.465312","MEAN_MOTION":13.75549826,"ECCENTRICITY":0.0027613,"INCLINATION":82.9331,"RA_OF_ASC_NODE":151.0586,"ARG_OF_PERICENTER":288.1754,"MEAN_ANOMALY":140.4512,"EPHEMERIS_TYPE":0,"CLASSIFICATION_TYPE":"U","NORAD_CAT_ID":21938,"ELEMENT_SET_NO":999,"REV_AT_EPOCH":70163,"BSTAR":3.4423734e-5,"MEAN_MOTION_DOT":4.8e-7,"MEAN_MOTION_DDOT":0},{"OBJECT_NAME":"USA 81","OBJECT_ID":"1992-023A","EPOCH":"2026-03-13T05:19:01.740288","MEAN_MOTION":14.32369172,"ECCENTRICITY":0.00023759,"INCLINATION":85.0077,"RA_OF_ASC_NODE":129.4037,"ARG_OF_PERICENTER":74.8203,"MEAN_ANOMALY":285.3252,"EPHEMERIS_TYPE":0,"CLASSIFICATION_TYPE":"U","NORAD_CAT_ID":21949,"ELEMENT_SET_NO":999,"REV_AT_EPOCH":9529,"BSTAR":5.7706975e-5,"MEAN_MOTION_DOT":1.76e-6,"MEAN_MOTION_DDOT":0},{"OBJECT_NAME":"COSMOS 2219","OBJECT_ID":"1992-076A","EPOCH":"2026-03-13T06:28:57.926496","MEAN_MOTION":14.14093486,"ECCENTRICITY":0.00187754,"INCLINATION":71.064,"RA_OF_ASC_NODE":10.5834,"ARG_OF_PERICENTER":202.0457,"MEAN_ANOMALY":157.986,"EPHEMERIS_TYPE":0,"CLASSIFICATION_TYPE":"U","NORAD_CAT_ID":22219,"ELEMENT_SET_NO":999,"REV_AT_EPOCH":71888,"BSTAR":3.9216336e-5,"MEAN_MOTION_DOT":2.8e-7,"MEAN_MOTION_DDOT":0},{"OBJECT_NAME":"SL-16 R/B","OBJECT_ID":"1992-076B","EPOCH":"2026-03-13T06:59:20.005728","MEAN_MOTION":14.16859204,"ECCENTRICITY":0.00104747,"INCLINATION":71.0008,"RA_OF_ASC_NODE":180.7878,"ARG_OF_PERICENTER":89.7333,"MEAN_ANOMALY":301.0306,"EPHEMERIS_TYPE":0,"CLASSIFICATION_TYPE":"U","NORAD_CAT_ID":22220,"ELEMENT_SET_NO":999,"REV_AT_EPOCH":72234,"BSTAR":-2.0806089e-5,"MEAN_MOTION_DOT":-9.0e-7,"MEAN_MOTION_DDOT":0},{"OBJECT_NAME":"COSMOS 2221","OBJECT_ID":"1992-080A","EPOCH":"2026-03-13T12:23:24.860544","MEAN_MOTION":14.96217844,"ECCENTRICITY":0.00143612,"INCLINATION":82.501,"RA_OF_ASC_NODE":275.4149,"ARG_OF_PERICENTER":174.1892,"MEAN_ANOMALY":185.9499,"EPHEMERIS_TYPE":0,"CLASSIFICATION_TYPE":"U","NORAD_CAT_ID":22236,"ELEMENT_SET_NO":999,"REV_AT_EPOCH":78136,"BSTAR":0.00020540718,"MEAN_MOTION_DOT":2.346e-5,"MEAN_MOTION_DDOT":0},{"OBJECT_NAME":"SL-16 R/B","OBJECT_ID":"1992-093B","EPOCH":"2026-03-13T04:51:22.043808","MEAN_MOTION":14.15447135,"ECCENTRICITY":0.00063667,"INCLINATION":71.0241,"RA_OF_ASC_NODE":356.8924,"ARG_OF_PERICENTER":289.9111,"MEAN_ANOMALY":70.1326,"EPHEMERIS_TYPE":0,"CLASSIFICATION_TYPE":"U","NORAD_CAT_ID":22285,"ELEMENT_SET_NO":999,"REV_AT_EPOCH":71365,"BSTAR":-3.0520009e-5,"MEAN_MOTION_DOT":-1.07e-6,"MEAN_MOTION_DDOT":0},{"OBJECT_NAME":"COSMOS 2228","OBJECT_ID":"1992-094A","EPOCH":"2026-03-13T14:19:33.202848","MEAN_MOTION":14.97213482,"ECCENTRICITY":0.00166609,"INCLINATION":82.5159,"RA_OF_ASC_NODE":233.5688,"ARG_OF_PERICENTER":290.4794,"MEAN_ANOMALY":69.464,"EPHEMERIS_TYPE":0,"CLASSIFICATION_TYPE":"U","NORAD_CAT_ID":22286,"ELEMENT_SET_NO":999,"REV_AT_EPOCH":77664,"BSTAR":0.00027204926,"MEAN_MOTION_DOT":3.18e-5,"MEAN_MOTION_DDOT":0},{"OBJECT_NAME":"SL-16 R/B","OBJECT_ID":"1993-016B","EPOCH":"2026-03-13T09:13:37.053696","MEAN_MOTION":14.15309365,"ECCENTRICITY":0.00120609,"INCLINATION":71.008,"RA_OF_ASC_NODE":207.4207,"ARG_OF_PERICENTER":309.2313,"MEAN_ANOMALY":50.7738,"EPHEMERIS_TYPE":0,"CLASSIFICATION_TYPE":"U","NORAD_CAT_ID":22566,"ELEMENT_SET_NO":999,"REV_AT_EPOCH":70269,"BSTAR":-3.498157e-6,"MEAN_MOTION_DOT":-5.5e-7,"MEAN_MOTION_DDOT":0},{"OBJECT_NAME":"COSMOS 2242","OBJECT_ID":"1993-024A","EPOCH":"2026-03-13T12:20:00.886560","MEAN_MOTION":14.96566146,"ECCENTRICITY":0.00149726,"INCLINATION":82.5154,"RA_OF_ASC_NODE":263.0577,"ARG_OF_PERICENTER":294.8741,"MEAN_ANOMALY":65.0924,"EPHEMERIS_TYPE":0,"CLASSIFICATION_TYPE":"U","NORAD_CAT_ID":22626,"ELEMENT_SET_NO":999,"REV_AT_EPOCH":78096,"BSTAR":0.00019556392,"MEAN_MOTION_DOT":2.255e-5,"MEAN_MOTION_DDOT":0}]
